start=new Date('2023-03-12T00:00:00.000Z').valueOf();
sats=[{"CLASSIFICATION_TYPE":"U","REV_AT_EPOCH":"11562","CENTER_NAME":"EARTH","SITE":"AFETR","OBJECT_ID":"2021-009BB","EPHEMERIS_TYPE":"0","OBJECT_NAME":"STARLINK-2002","GP_ID":"227888647","TLE_LINE1":"1 47597U 21009BB  23070.70021148  .00020152  00000-0  13677-2 0  9995","TLE_LINE2":"2 47597  53.0516 272.7305 0000783  89.9818 270.1261 15.06405522115625","COUNTRY_CODE":"US","REF_FRAME":"TEME","EPOCH":"2023-03-11T16:48:18.271872","BSTAR":"0.00136770000000","INCLINATION":"53.0516","OBJECT_TYPE":"PAYLOAD","ECCENTRICITY":"0.00007830","MEAN_MOTION_DDOT":"0.0000000000000","PERIAPSIS":"546.654","PERIOD":"95.592","MEAN_MOTION":"15.06405522","LAUNCH_DATE":"2021-02-04","DECAY_DATE":null,"RCS_SIZE":"LARGE","APOAPSIS":"547.739","FILE":"3857847","MEAN_ANOMALY":"270.1261","ELEMENT_SET_NO":"999","ARG_OF_PERICENTER":"89.9818","RA_OF_ASC_NODE":"272.7305","SEMIMAJOR_AXIS":"6925.332","NORAD_CAT_ID":"47597","MEAN_MOTION_DOT":"0.00020152","TIME_SYSTEM":"UTC","MEAN_ELEMENT_THEORY":"SGP4"},{"SITE":"AFETR","REV_AT_EPOCH":"11608","CENTER_NAME":"EARTH","CLASSIFICATION_TYPE":"U","GP_ID":"227887395","OBJECT_ID":"2021-009BC","OBJECT_NAME":"STARLINK-2003","EPHEMERIS_TYPE":"0","TLE_LINE2":"2 47598  53.0534 241.7873 0001140  82.5192 277.5927 15.06403597116085","TLE_LINE1":"1 47598U 21009BC  23070.90937871  .00000553  00000-0  56022-4 0  9993","EPOCH":"2023-03-11T21:49:30.320544","REF_FRAME":"TEME","COUNTRY_CODE":"US","OBJECT_TYPE":"PAYLOAD","ECCENTRICITY":"0.00011400","BSTAR":"0.00005602200000","INCLINATION":"53.0534","LAUNCH_DATE":"2021-02-04","PERIOD":"95.592","MEAN_MOTION":"15.06403597","MEAN_MOTION_DDOT":"0.0000000000000","PERIAPSIS":"546.413","ELEMENT_SET_NO":"999","ARG_OF_PERICENTER":"82.5192","APOAPSIS":"547.992","MEAN_ANOMALY":"277.5927","FILE":"3857847","DECAY_DATE":null,"RCS_SIZE":"LARGE","MEAN_ELEMENT_THEORY":"SGP4","SEMIMAJOR_AXIS":"6925.338","MEAN_MOTION_DOT":"0.00000553","NORAD_CAT_ID":"47598","TIME_SYSTEM":"UTC","RA_OF_ASC_NODE":"241.7873"},{"BSTAR":"-0.00022831000000","INCLINATION":"53.0519","OBJECT_TYPE":"PAYLOAD","ECCENTRICITY":"0.00012050","MEAN_MOTION_DDOT":"0.0000000000000","PERIAPSIS":"546.429","PERIOD":"95.593","MEAN_MOTION":"15.06383638","LAUNCH_DATE":"2021-02-04","DECAY_DATE":null,"RCS_SIZE":"LARGE","APOAPSIS":"548.098","MEAN_ANOMALY":"262.4372","FILE":"3857847","ELEMENT_SET_NO":"999","ARG_OF_PERICENTER":"97.6753","RA_OF_ASC_NODE":"232.1273","SEMIMAJOR_AXIS":"6925.399","MEAN_MOTION_DOT":"-0.00003679","TIME_SYSTEM":"UTC","NORAD_CAT_ID":"47599","MEAN_ELEMENT_THEORY":"SGP4","CLASSIFICATION_TYPE":"U","REV_AT_EPOCH":"11620","CENTER_NAME":"EARTH","SITE":"AFETR","OBJECT_ID":"2021-009BD","OBJECT_NAME":"STARLINK-2004","EPHEMERIS_TYPE":"0","GP_ID":"227887645","TLE_LINE1":"1 47599U 21009BD  23070.83290691 -.00003679  00000-0 -22831-3 0  9992","TLE_LINE2":"2 47599  53.0519 232.1273 0001205  97.6753 262.4372 15.06383638116203","COUNTRY_CODE":"US","REF_FRAME":"TEME","EPOCH":"2023-03-11T19:59:23.157024"},{"OBJECT_TYPE":"PAYLOAD","ECCENTRICITY":"0.00008070","INCLINATION":"53.0552","BSTAR":"0.00170290000000","PERIOD":"95.594","MEAN_MOTION":"15.06364523","LAUNCH_DATE":"2021-02-04","MEAN_MOTION_DDOT":"0.0000000000000","PERIAPSIS":"546.763","APOAPSIS":"547.881","MEAN_ANOMALY":"214.9229","FILE":"3857847","ELEMENT_SET_NO":"999","ARG_OF_PERICENTER":"145.1813","DECAY_DATE":null,"RCS_SIZE":"LARGE","SEMIMAJOR_AXIS":"6925.457","TIME_SYSTEM":"UTC","MEAN_MOTION_DOT":"0.00025150","NORAD_CAT_ID":"47600","MEAN_ELEMENT_THEORY":"SGP4","RA_OF_ASC_NODE":"231.9854","REV_AT_EPOCH":"11621","CENTER_NAME":"EARTH","SITE":"AFETR","CLASSIFICATION_TYPE":"U","OBJECT_ID":"2021-009BE","OBJECT_NAME":"STARLINK-2005","EPHEMERIS_TYPE":"0","GP_ID":"227888896","TLE_LINE2":"2 47600  53.0552 231.9854 0000807 145.1813 214.9229 15.06364523116214","TLE_LINE1":"1 47600U 21009BE  23070.85869406  .00025150  00000-0  17029-2 0  9991","EPOCH":"2023-03-11T20:36:31.166784","COUNTRY_CODE":"US","REF_FRAME":"TEME"},{"COUNTRY_CODE":"US","REF_FRAME":"TEME","EPOCH":"2023-03-11T21:40:12.784800","TLE_LINE1":"1 47601U 21009BF  23070.90292575  .00005618  00000-0  39564-3 0  9991","TLE_LINE2":"2 47601  53.0539 231.8114 0001141  81.4672 278.6446 15.06412480116219","OBJECT_ID":"2021-009BF","OBJECT_NAME":"STARLINK-2006","EPHEMERIS_TYPE":"0","GP_ID":"227889147","CLASSIFICATION_TYPE":"U","REV_AT_EPOCH":"11621","CENTER_NAME":"EARTH","SITE":"AFETR","RA_OF_ASC_NODE":"231.8114","SEMIMAJOR_AXIS":"6925.310","TIME_SYSTEM":"UTC","MEAN_MOTION_DOT":"0.00005618","NORAD_CAT_ID":"47601","MEAN_ELEMENT_THEORY":"SGP4","DECAY_DATE":null,"RCS_SIZE":"LARGE","APOAPSIS":"547.965","FILE":"3857847","MEAN_ANOMALY":"278.6446","ELEMENT_SET_NO":"999","ARG_OF_PERICENTER":"81.4672","MEAN_MOTION_DDOT":"0.0000000000000","PERIAPSIS":"546.385","PERIOD":"95.591","MEAN_MOTION":"15.06412480","LAUNCH_DATE":"2021-02-04","INCLINATION":"53.0539","BSTAR":"0.00039564000000","OBJECT_TYPE":"PAYLOAD","ECCENTRICITY":"0.00011410"},{"INCLINATION":"53.0518","BSTAR":"0.00003832000000","ECCENTRICITY":"0.00007830","OBJECT_TYPE":"PAYLOAD","PERIAPSIS":"546.755","MEAN_MOTION_DDOT":"0.0000000000000","MEAN_MOTION":"15.06372700","PERIOD":"95.594","LAUNCH_DATE":"2021-02-04","RCS_SIZE":"LARGE","DECAY_DATE":null,"MEAN_ANOMALY":"241.9454","FILE":"3857847","APOAPSIS":"547.839","ARG_OF_PERICENTER":"118.1614","ELEMENT_SET_NO":"999","RA_OF_ASC_NODE":"242.9136","NORAD_CAT_ID":"47602","MEAN_MOTION_DOT":"0.00000289","TIME_SYSTEM":"UTC","SEMIMAJOR_AXIS":"6925.432","MEAN_ELEMENT_THEORY":"SGP4","CLASSIFICATION_TYPE":"U","CENTER_NAME":"EARTH","REV_AT_EPOCH":"11603","SITE":"AFETR","EPHEMERIS_TYPE":"0","OBJECT_NAME":"STARLINK-2007","OBJECT_ID":"2021-009BG","GP_ID":"227887895","TLE_LINE1":"1 47602U 21009BG  23070.65873159  .00000289  00000-0  38320-4 0  9996","TLE_LINE2":"2 47602  53.0518 242.9136 0000783 118.1614 241.9454 15.06372700116031","COUNTRY_CODE":"US","REF_FRAME":"TEME","EPOCH":"2023-03-11T15:48:34.409376"},{"CLASSIFICATION_TYPE":"U","SITE":"AFETR","CENTER_NAME":"EARTH","REV_AT_EPOCH":"11551","GP_ID":"227854836","EPHEMERIS_TYPE":"0","OBJECT_NAME":"STARLINK-2008","OBJECT_ID":"2021-009BH","TLE_LINE1":"1 47603U 21009BH  23070.00725015  .00005079  00000-0  35964-3 0  9995","TLE_LINE2":"2 47603  53.0532 275.8407 0001173 101.6014 258.5107 15.06398705115513","REF_FRAME":"TEME","COUNTRY_CODE":"US","EPOCH":"2023-03-11T00:10:26.412960","BSTAR":"0.00035964000000","INCLINATION":"53.0532","ECCENTRICITY":"0.00011730","OBJECT_TYPE":"PAYLOAD","PERIAPSIS":"546.405","MEAN_MOTION_DDOT":"0.0000000000000","LAUNCH_DATE":"2021-02-04","MEAN_MOTION":"15.06398705","PERIOD":"95.592","RCS_SIZE":"LARGE","DECAY_DATE":null,"ELEMENT_SET_NO":"999","ARG_OF_PERICENTER":"101.6014","MEAN_ANOMALY":"258.5107","FILE":"3857581","APOAPSIS":"548.030","RA_OF_ASC_NODE":"275.8407","MEAN_ELEMENT_THEORY":"SGP4","MEAN_MOTION_DOT":"0.00005079","TIME_SYSTEM":"UTC","NORAD_CAT_ID":"47603","SEMIMAJOR_AXIS":"6925.353"},{"BSTAR":"0.00152610000000","INCLINATION":"53.0529","OBJECT_TYPE":"PAYLOAD","ECCENTRICITY":"0.00013290","MEAN_MOTION_DDOT":"0.0000000000000","PERIAPSIS":"546.360","PERIOD":"95.594","MEAN_MOTION":"15.06378149","LAUNCH_DATE":"2021-02-04","DECAY_DATE":null,"RCS_SIZE":"LARGE","APOAPSIS":"548.201","FILE":"3857847","MEAN_ANOMALY":"272.1326","ELEMENT_SET_NO":"999","ARG_OF_PERICENTER":"87.9815","RA_OF_ASC_NODE":"242.8808","SEMIMAJOR_AXIS":"6925.416","TIME_SYSTEM":"UTC","MEAN_MOTION_DOT":"0.00022509","NORAD_CAT_ID":"47604","MEAN_ELEMENT_THEORY":"SGP4","CLASSIFICATION_TYPE":"U","REV_AT_EPOCH":"11604","CENTER_NAME":"EARTH","SITE":"AFETR","OBJECT_ID":"2021-009BJ","OBJECT_NAME":"STARLINK-2021","EPHEMERIS_TYPE":"0","GP_ID":"227888397","TLE_LINE1":"1 47604U 21009BJ  23070.66611804  .00022509  00000-0  15261-2 0  9992","TLE_LINE2":"2 47604  53.0529 242.8808 0001329  87.9815 272.1326 15.06378149116041","COUNTRY_CODE":"US","REF_FRAME":"TEME","EPOCH":"2023-03-11T15:59:12.598656"},{"GP_ID":"227888648","EPHEMERIS_TYPE":"0","OBJECT_NAME":"STARLINK-2024","OBJECT_ID":"2021-009BL","CLASSIFICATION_TYPE":"U","SITE":"AFETR","CENTER_NAME":"EARTH","REV_AT_EPOCH":"11607","REF_FRAME":"TEME","COUNTRY_CODE":"US","EPOCH":"2023-03-11T20:51:08.112960","TLE_LINE1":"1 47606U 21009BL  23070.86884390 -.00008983  00000-0 -58534-3 0  9991","TLE_LINE2":"2 47606  53.0533 241.9700 0001448  95.2322 264.8832 15.06372727116075","PERIAPSIS":"546.294","MEAN_MOTION_DDOT":"0.0000000000000","LAUNCH_DATE":"2021-02-04","MEAN_MOTION":"15.06372727","PERIOD":"95.594","INCLINATION":"53.0533","BSTAR":"-0.00058534000000","ECCENTRICITY":"0.00014480","OBJECT_TYPE":"PAYLOAD","RA_OF_ASC_NODE":"241.9700","MEAN_ELEMENT_THEORY":"SGP4","MEAN_MOTION_DOT":"-0.00008983","TIME_SYSTEM":"UTC","NORAD_CAT_ID":"47606","SEMIMAJOR_AXIS":"6925.432","RCS_SIZE":"LARGE","DECAY_DATE":null,"ARG_OF_PERICENTER":"95.2322","ELEMENT_SET_NO":"999","FILE":"3857847","MEAN_ANOMALY":"264.8832","APOAPSIS":"548.300"},{"INCLINATION":"53.0526","BSTAR":"0.00020306000000","ECCENTRICITY":"0.00007520","OBJECT_TYPE":"PAYLOAD","PERIAPSIS":"546.671","MEAN_MOTION_DDOT":"0.0000000000000","MEAN_MOTION":"15.06406947","PERIOD":"95.592","LAUNCH_DATE":"2021-02-04","RCS_SIZE":"LARGE","DECAY_DATE":null,"MEAN_ANOMALY":"277.2810","FILE":"3857847","APOAPSIS":"547.713","ELEMENT_SET_NO":"999","ARG_OF_PERICENTER":"82.8265","RA_OF_ASC_NODE":"241.7848","MEAN_MOTION_DOT":"0.00002745","TIME_SYSTEM":"UTC","NORAD_CAT_ID":"47607","SEMIMAJOR_AXIS":"6925.327","MEAN_ELEMENT_THEORY":"SGP4","CLASSIFICATION_TYPE":"U","CENTER_NAME":"EARTH","REV_AT_EPOCH":"11607","SITE":"AFETR","OBJECT_NAME":"STARLINK-2025","EPHEMERIS_TYPE":"0","OBJECT_ID":"2021-009BM","GP_ID":"227887396","TLE_LINE1":"1 47607U 21009BM  23070.91306514  .00002745  00000-0  20306-3 0  9999","TLE_LINE2":"2 47607  53.0526 241.7848 0000752  82.8265 277.2810 15.06406947116070","COUNTRY_CODE":"US","REF_FRAME":"TEME","EPOCH":"2023-03-11T21:54:48.828096"}];
